{
  "norad_id": 57355,
  "name": "STARLINK-6276",
  "history": [
    {
      "epoch": "2026-04-13T06:00:02.000160Z",
      "apogee_km": 489.56333340015135,
      "perigee_km": 487.5608666086073,
      "latitude_deg": -41.129054030980825,
      "longitude_deg": 46.702489287460025,
      "height_km": 500.1197355502248,
      "semi_major_axis_km": 6866.699100004379,
      "eccentricity": 0.00014581,
      "inclination_deg": 43.001,
      "raan_deg": 46.7849,
      "arg_perigee_deg": 268.5816,
      "mean_anomaly_deg": 17.4124,
      "mean_motion_rev_day": 15.25740718
    },
    {
      "epoch": "2026-04-14T20:00:01.999008Z",
      "apogee_km": 488.86020901335814,
      "perigee_km": 487.3496357904287,
      "latitude_deg": -4.467466666663817,
      "longitude_deg": -109.92572352840712,
      "height_km": 488.6698757939103,
      "semi_major_axis_km": 6866.241922401893,
      "eccentricity": 0.00011,
      "inclination_deg": 43.0009,
      "raan_deg": 37.8661,
      "arg_perigee_deg": 255.8822,
      "mean_anomaly_deg": 97.6707,
      "mean_motion_rev_day": 15.25893104
    },
    {
      "epoch": "2026-04-15T20:00:01.999008Z",
      "apogee_km": 488.80197755632344,
      "perigee_km": 487.30789419107623,
      "latitude_deg": 43.07398339832842,
      "longitude_deg": -17.342913535745232,
      "height_km": 491.89758751275104,
      "semi_major_axis_km": 6866.1919358737,
      "eccentricity": 0.0001088,
      "inclination_deg": 43.001,
      "raan_deg": 32.2331,
      "arg_perigee_deg": 254.6607,
      "mean_anomaly_deg": 198.5769,
      "mean_motion_rev_day": 15.25909767
    },
    {
      "epoch": "2026-04-16T20:00:01.999008Z",
      "apogee_km": 488.77485086049455,
      "perigee_km": 487.2725349008924,
      "latitude_deg": -8.893402566320649,
      "longitude_deg": 71.22273970847046,
      "height_km": 488.99719686973674,
      "semi_major_axis_km": 6866.160692880693,
      "eccentricity": 0.0001094,
      "inclination_deg": 43.0013,
      "raan_deg": 26.6007,
      "arg_perigee_deg": 252.3041,
      "mean_anomaly_deg": 300.6479,
      "mean_motion_rev_day": 15.25920182
    },
    {
      "epoch": "2026-04-17T16:00:01.999584Z",
      "apogee_km": 488.99279096818736,
      "perigee_km": 486.58793125068587,
      "latitude_deg": 42.87003154164709,
      "longitude_deg": 34.405784797106286,
      "height_km": 492.0140675314034,
      "semi_major_axis_km": 6865.927361109437,
      "eccentricity": 0.00017513,
      "inclination_deg": 43.0132,
      "raan_deg": 21.9047,
      "arg_perigee_deg": 256.5177,
      "mean_anomaly_deg": 199.5759,
      "mean_motion_rev_day": 15.25997968
    },
    {
      "epoch": "2026-04-18T02:34:31.516608Z",
      "apogee_km": 488.73692404925623,
      "perigee_km": 486.7962077473194,
      "latitude_deg": 4.925784213654202e-05,
      "longitude_deg": 134.55857752910765,
      "height_km": 488.49705109585824,
      "semi_major_axis_km": 6865.9035658982875,
      "eccentricity": 0.00014133,
      "inclination_deg": 43.0006,
      "raan_deg": 19.4209,
      "arg_perigee_deg": 190.2929,
      "mean_anomaly_deg": 169.7894,
      "mean_motion_rev_day": 15.26005901
    },
    {
      "epoch": "2026-04-20T14:12:49.821984Z",
      "apogee_km": 484.56897140705223,
      "perigee_km": 482.33127061514824,
      "latitude_deg": -3.187230213575191e-05,
      "longitude_deg": -56.4969467667481,
      "height_km": 482.92792927195774,
      "semi_major_axis_km": 6861.5871210111,
      "eccentricity": 0.00016306,
      "inclination_deg": 43.0014,
      "raan_deg": 5.391,
      "arg_perigee_deg": 285.5132,
      "mean_anomaly_deg": 74.5539,
      "mean_motion_rev_day": 15.27446083
    },
    {
      "epoch": "2026-04-21T20:00:01.999008Z",
      "apogee_km": 484.06845893909576,
      "perigee_km": 481.9881536182329,
      "latitude_deg": -4.68933530844522,
      "longitude_deg": -156.54505614133163,
      "height_km": 483.60268424718805,
      "semi_major_axis_km": 6861.1653062786645,
      "eccentricity": 0.0001516,
      "inclination_deg": 43.0001,
      "raan_deg": 358.3854,
      "arg_perigee_deg": 259.3303,
      "mean_anomaly_deg": 93.8931,
      "mean_motion_rev_day": 15.27586943
    },
    {
      "epoch": "2026-04-22T20:00:03.000384Z",
      "apogee_km": 484.0676399144768,
      "perigee_km": 481.9804747208409,
      "latitude_deg": 42.501133777561165,
      "longitude_deg": -55.92065785269522,
      "height_km": 487.0168765710903,
      "semi_major_axis_km": 6861.161057317659,
      "eccentricity": 0.0001521,
      "inclination_deg": 43.0,
      "raan_deg": 352.738,
      "arg_perigee_deg": 259.859,
      "mean_anomaly_deg": 199.1549,
      "mean_motion_rev_day": 15.27588362
    },
    {
      "epoch": "2026-04-23T14:00:04.000032Z",
      "apogee_km": 484.20319550612385,
      "perigee_km": 481.99703332435456,
      "latitude_deg": -43.137049541082156,
      "longitude_deg": -165.34826723961672,
      "height_km": 495.35265785289954,
      "semi_major_axis_km": 6861.237114415239,
      "eccentricity": 0.00016077,
      "inclination_deg": 43.0001,
      "raan_deg": 348.5,
      "arg_perigee_deg": 258.6679,
      "mean_anomaly_deg": 9.7143,
      "mean_motion_rev_day": 15.27562962
    },
    {
      "epoch": "2026-04-23T23:48:59.061600Z",
      "apogee_km": 484.07262769347744,
      "perigee_km": 482.0443210873382,
      "latitude_deg": 3.814759573032528e-05,
      "longitude_deg": 136.91202346311775,
      "height_km": 482.9547689710753,
      "semi_major_axis_km": 6861.195474390407,
      "eccentricity": 0.00014781,
      "inclination_deg": 43.0017,
      "raan_deg": 346.1897,
      "arg_perigee_deg": 263.2405,
      "mean_anomaly_deg": 96.8279,
      "mean_motion_rev_day": 15.27576868
    },
    {
      "epoch": "2026-04-25T00:55:29.265024Z",
      "apogee_km": 484.07282934610066,
      "perigee_km": 482.0373880951274,
      "latitude_deg": -2.002530050292974e-05,
      "longitude_deg": 113.34724798042899,
      "height_km": 482.9725287929729,
      "semi_major_axis_km": 6861.192108720614,
      "eccentricity": 0.00014833,
      "inclination_deg": 43.0009,
      "raan_deg": 340.282,
      "arg_perigee_deg": 262.0603,
      "mean_anomaly_deg": 98.008,
      "mean_motion_rev_day": 15.27577992
    },
    {
      "epoch": "2026-04-26T20:51:52.091424Z",
      "apogee_km": 484.1330377666236,
      "perigee_km": 481.9725863186086,
      "latitude_deg": 2.0675688848369338e-05,
      "longitude_deg": 162.1078435214027,
      "height_km": 482.90812703950644,
      "semi_major_axis_km": 6861.189812042616,
      "eccentricity": 0.00015744,
      "inclination_deg": 43.0017,
      "raan_deg": 329.9422,
      "arg_perigee_deg": 265.8434,
      "mean_anomaly_deg": 94.2238,
      "mean_motion_rev_day": 15.27578759
    }
  ]
}